IRIDIUM 124             
1 42810U 17039H   26062.18443916  .00000483  00000+0  13748-3 0  9997
2 42810  86.4540 334.6924 0002115  83.9810 276.1632 14.43267872459822
IRIDIUM 128             
1 42811U 17039J   26062.09123435  .00000032  00000+0  43805-5 0  9998
2 42811  86.3906  69.5069 0002047  95.2024 264.9406 14.34217645454775
IRIDIUM 121             
1 42812U 17039K   26061.97998777  .00000008  00000+0 -40841-5 0  9995
2 42812  86.3960  38.0429 0002098  90.1867 269.9569 14.34217461454605
IRIDIUM 133             
1 42955U 17061A   26062.12294763 -.00000007  00000+0 -96489-5 0  9999
2 42955  86.3911  69.6092 0002014  90.2953 269.8473 14.34217253439571
IRIDIUM 100             
1 42956U 17061B   26062.11660431  .00000009  00000+0 -38158-5 0  9998
2 42956  86.3909  69.5328 0002050  90.2993 269.8438 14.34217449439572
IRIDIUM 122             
1 42957U 17061C   26062.08488934  .00000087  00000+0  23951-4 0  9990
2 42957  86.3908  69.5459 0002141  88.1116 272.0325 14.34217880439571
IRIDIUM 129             
1 42958U 17061D   26062.04049417  .00000080  00000+0  21595-4 0  9991
2 42958  86.3908  69.6304 0002541  87.3521 272.7966 14.34218142439588
IRIDIUM 119             
1 42959U 17061E   26062.07854961  .00000036  00000+0  58412-5 0  9993
2 42959  86.3910  69.6098 0002272  86.1102 274.0354 14.34217805439609
IRIDIUM 107             
1 42960U 17061F   26062.09757645  .00000036  00000+0  56738-5 0  9997
2 42960  86.3909  69.6225 0001906  85.7723 274.3690 14.34217800439610
IRIDIUM 132             
1 42961U 17061G   26062.10391864  .00000098  00000+0  28052-4 0  9992
2 42961  86.3909  69.6000 0002101  90.0994 270.0443 14.34218002439613
IRIDIUM 136             
1 42962U 17061H   26062.06586395  .00000034  00000+0  49692-5 0  9997
2 42962  86.3908  69.6220 0002185  87.4399 272.7047 14.34217908439622
IRIDIUM 139             
1 42963U 17061J   26062.07220692  .00000028  00000+0  30135-5 0  9999
2 42963  86.3911  69.6796 0002100  90.6783 269.4653 14.34217734439639
IRIDIUM 125             
1 42964U 17061K   26062.05952065  .00000078  00000+0  20914-4 0  9992
2 42964  86.3911  69.7443 0002069  74.8122 285.3302 14.34218101439643
IRIDIUM 135             
1 43070U 17083A   26061.89411578  .00000344  00000+0  11578-3 0  9996
2 43070  86.4016   6.4307 0002177  85.9729 274.1716 14.34217286428918
IRIDIUM 138             
1 43071U 17083B   26061.91948140  .00000035  00000+0  52877-5 0  9996
2 43071  86.4029   6.0994 0002406  77.7321 282.4144 14.34217846428901
IRIDIUM 116             
1 43072U 17083C   26061.88776811  .00000029  00000+0  32298-5 0  9995
2 43072  86.4012   6.4203 0002041  93.7742 266.3687 14.34217743428933
IRIDIUM 130             
1 43073U 17083D   26062.06535964  .00000171  00000+0  53956-4 0  9990
2 43073  86.4021   6.6112 0001895  87.9671 272.1742 14.34218354428900
