[{"OBJECT_NAME":"IRIDIUM 124","OBJECT_ID":"2017-039H","EPOCH":"2026-03-03T04:25:35.543424","MEAN_MOTION":14.43267872,"ECCENTRICITY":0.0002115,"INCLINATION":86.454,"RA_OF_ASC_NODE":334.6924,"ARG_OF_PERICENTER":83.981,"MEAN_ANOMALY":276.1632,"EPHEMERIS_TYPE":0,"CLASSIFICATION_TYPE":"U","NORAD_CAT_ID":42810,"ELEMENT_SET_NO":999,"REV_AT_EPOCH":45982,"BSTAR":0.00013748,"MEAN_MOTION_DOT":4.83e-6,"MEAN_MOTION_DDOT":0},{"OBJECT_NAME":"IRIDIUM 128","OBJECT_ID":"2017-039J","EPOCH":"2026-03-03T02:11:22.647840","MEAN_MOTION":14.34217645,"ECCENTRICITY":0.0002047,"INCLINATION":86.3906,"RA_OF_ASC_NODE":69.5069,"ARG_OF_PERICENTER":95.2024,"MEAN_ANOMALY":264.9406,"EPHEMERIS_TYPE":0,"CLASSIFICATION_TYPE":"U","NORAD_CAT_ID":42811,"ELEMENT_SET_NO":999,"REV_AT_EPOCH":45477,"BSTAR":4.3805e-6,"MEAN_MOTION_DOT":3.2e-7,"MEAN_MOTION_DDOT":0},{"OBJECT_NAME":"IRIDIUM 121","OBJECT_ID":"2017-039K","EPOCH":"2026-03-02T23:31:10.943328","MEAN_MOTION":14.34217461,"ECCENTRICITY":0.0002098,"INCLINATION":86.396,"RA_OF_ASC_NODE":38.0429,"ARG_OF_PERICENTER":90.1867,"MEAN_ANOMALY":269.9569,"EPHEMERIS_TYPE":0,"CLASSIFICATION_TYPE":"U","NORAD_CAT_ID":42812,"ELEMENT_SET_NO":999,"REV_AT_EPOCH":45460,"BSTAR":-4.0841e-6,"MEAN_MOTION_DOT":8.0e-8,"MEAN_MOTION_DDOT":0},{"OBJECT_NAME":"IRIDIUM 133","OBJECT_ID":"2017-061A","EPOCH":"2026-03-03T02:57:02.675232","MEAN_MOTION":14.34217253,"ECCENTRICITY":0.0002014,"INCLINATION":86.3911,"RA_OF_ASC_NODE":69.6092,"ARG_OF_PERICENTER":90.2953,"MEAN_ANOMALY":269.8473,"EPHEMERIS_TYPE":0,"CLASSIFICATION_TYPE":"U","NORAD_CAT_ID":42955,"ELEMENT_SET_NO":999,"REV_AT_EPOCH":43957,"BSTAR":-9.6489e-6,"MEAN_MOTION_DOT":-7.0e-8,"MEAN_MOTION_DDOT":0},{"OBJECT_NAME":"IRIDIUM 100","OBJECT_ID":"2017-061B","EPOCH":"2026-03-03T02:47:54.612384","MEAN_MOTION":14.34217449,"ECCENTRICITY":0.000205,"INCLINATION":86.3909,"RA_OF_ASC_NODE":69.5328,"ARG_OF_PERICENTER":90.2993,"MEAN_ANOMALY":269.8438,"EPHEMERIS_TYPE":0,"CLASSIFICATION_TYPE":"U","NORAD_CAT_ID":42956,"ELEMENT_SET_NO":999,"REV_AT_EPOCH":43957,"BSTAR":-3.8158e-6,"MEAN_MOTION_DOT":9.0e-8,"MEAN_MOTION_DDOT":0},{"OBJECT_NAME":"IRIDIUM 122","OBJECT_ID":"2017-061C","EPOCH":"2026-03-03T02:02:14.438976","MEAN_MOTION":14.3421788,"ECCENTRICITY":0.0002141,"INCLINATION":86.3908,"RA_OF_ASC_NODE":69.5459,"ARG_OF_PERICENTER":88.1116,"MEAN_ANOMALY":272.0325,"EPHEMERIS_TYPE":0,"CLASSIFICATION_TYPE":"U","NORAD_CAT_ID":42957,"ELEMENT_SET_NO":999,"REV_AT_EPOCH":43957,"BSTAR":2.3951e-5,"MEAN_MOTION_DOT":8.7e-7,"MEAN_MOTION_DDOT":0},{"OBJECT_NAME":"IRIDIUM 129","OBJECT_ID":"2017-061D","EPOCH":"2026-03-03T00:58:18.696288","MEAN_MOTION":14.34218142,"ECCENTRICITY":0.0002541,"INCLINATION":86.3908,"RA_OF_ASC_NODE":69.6304,"ARG_OF_PERICENTER":87.3521,"MEAN_ANOMALY":272.7966,"EPHEMERIS_TYPE":0,"CLASSIFICATION_TYPE":"U","NORAD_CAT_ID":42958,"ELEMENT_SET_NO":999,"REV_AT_EPOCH":43958,"BSTAR":2.1595e-5,"MEAN_MOTION_DOT":8.0e-7,"MEAN_MOTION_DDOT":0},{"OBJECT_NAME":"IRIDIUM 119","OBJECT_ID":"2017-061E","EPOCH":"2026-03-03T01:53:06.686304","MEAN_MOTION":14.34217805,"ECCENTRICITY":0.0002272,"INCLINATION":86.391,"RA_OF_ASC_NODE":69.6098,"ARG_OF_PERICENTER":86.1102,"MEAN_ANOMALY":274.0354,"EPHEMERIS_TYPE":0,"CLASSIFICATION_TYPE":"U","NORAD_CAT_ID":42959,"ELEMENT_SET_NO":999,"REV_AT_EPOCH":43960,"BSTAR":5.8412e-6,"MEAN_MOTION_DOT":3.6e-7,"MEAN_MOTION_DDOT":0},{"OBJECT_NAME":"IRIDIUM 107","OBJECT_ID":"2017-061F","EPOCH":"2026-03-03T02:20:30.605280","MEAN_MOTION":14.342178,"ECCENTRICITY":0.0001906,"INCLINATION":86.3909,"RA_OF_ASC_NODE":69.6225,"ARG_OF_PERICENTER":85.7723,"MEAN_ANOMALY":274.369,"EPHEMERIS_TYPE":0,"CLASSIFICATION_TYPE":"U","NORAD_CAT_ID":42960,"ELEMENT_SET_NO":999,"REV_AT_EPOCH":43961,"BSTAR":5.6738e-6,"MEAN_MOTION_DOT":3.6e-7,"MEAN_MOTION_DDOT":0},{"OBJECT_NAME":"IRIDIUM 132","OBJECT_ID":"2017-061G","EPOCH":"2026-03-03T02:29:38.570496","MEAN_MOTION":14.34218002,"ECCENTRICITY":0.0002101,"INCLINATION":86.3909,"RA_OF_ASC_NODE":69.6,"ARG_OF_PERICENTER":90.0994,"MEAN_ANOMALY":270.0443,"EPHEMERIS_TYPE":0,"CLASSIFICATION_TYPE":"U","NORAD_CAT_ID":42961,"ELEMENT_SET_NO":999,"REV_AT_EPOCH":43961,"BSTAR":2.8052e-5,"MEAN_MOTION_DOT":9.8e-7,"MEAN_MOTION_DDOT":0},{"OBJECT_NAME":"IRIDIUM 136","OBJECT_ID":"2017-061H","EPOCH":"2026-03-03T01:34:50.645280","MEAN_MOTION":14.34217908,"ECCENTRICITY":0.0002185,"INCLINATION":86.3908,"RA_OF_ASC_NODE":69.622,"ARG_OF_PERICENTER":87.4399,"MEAN_ANOMALY":272.7047,"EPHEMERIS_TYPE":0,"CLASSIFICATION_TYPE":"U","NORAD_CAT_ID":42962,"ELEMENT_SET_NO":999,"REV_AT_EPOCH":43962,"BSTAR":4.9692e-6,"MEAN_MOTION_DOT":3.4e-7,"MEAN_MOTION_DDOT":0},{"OBJECT_NAME":"IRIDIUM 139","OBJECT_ID":"2017-061J","EPOCH":"2026-03-03T01:43:58.677888","MEAN_MOTION":14.34217734,"ECCENTRICITY":0.00021,"INCLINATION":86.3911,"RA_OF_ASC_NODE":69.6796,"ARG_OF_PERICENTER":90.6783,"MEAN_ANOMALY":269.4653,"EPHEMERIS_TYPE":0,"CLASSIFICATION_TYPE":"U","NORAD_CAT_ID":42963,"ELEMENT_SET_NO":999,"REV_AT_EPOCH":43963,"BSTAR":3.0135e-6,"MEAN_MOTION_DOT":2.8e-7,"MEAN_MOTION_DDOT":0},{"OBJECT_NAME":"IRIDIUM 125","OBJECT_ID":"2017-061K","EPOCH":"2026-03-03T01:25:42.584160","MEAN_MOTION":14.34218101,"ECCENTRICITY":0.0002069,"INCLINATION":86.3911,"RA_OF_ASC_NODE":69.7443,"ARG_OF_PERICENTER":74.8122,"MEAN_ANOMALY":285.3302,"EPHEMERIS_TYPE":0,"CLASSIFICATION_TYPE":"U","NORAD_CAT_ID":42964,"ELEMENT_SET_NO":999,"REV_AT_EPOCH":43964,"BSTAR":2.0914e-5,"MEAN_MOTION_DOT":7.8e-7,"MEAN_MOTION_DDOT":0},{"OBJECT_NAME":"IRIDIUM 135","OBJECT_ID":"2017-083A","EPOCH":"2026-03-02T21:27:31.603392","MEAN_MOTION":14.34217286,"ECCENTRICITY":0.0002177,"INCLINATION":86.4016,"RA_OF_ASC_NODE":6.4307,"ARG_OF_PERICENTER":85.9729,"MEAN_ANOMALY":274.1716,"EPHEMERIS_TYPE":0,"CLASSIFICATION_TYPE":"U","NORAD_CAT_ID":43070,"ELEMENT_SET_NO":999,"REV_AT_EPOCH":42891,"BSTAR":0.00011578,"MEAN_MOTION_DOT":3.44e-6,"MEAN_MOTION_DDOT":0},{"OBJECT_NAME":"IRIDIUM 138","OBJECT_ID":"2017-083B","EPOCH":"2026-03-02T22:04:03.192960","MEAN_MOTION":14.34217846,"ECCENTRICITY":0.0002406,"INCLINATION":86.4029,"RA_OF_ASC_NODE":6.0994,"ARG_OF_PERICENTER":77.7321,"MEAN_ANOMALY":282.4144,"EPHEMERIS_TYPE":0,"CLASSIFICATION_TYPE":"U","NORAD_CAT_ID":43071,"ELEMENT_SET_NO":999,"REV_AT_EPOCH":42890,"BSTAR":5.2877e-6,"MEAN_MOTION_DOT":3.5e-7,"MEAN_MOTION_DDOT":0},{"OBJECT_NAME":"IRIDIUM 116","OBJECT_ID":"2017-083C","EPOCH":"2026-03-02T21:18:23.164704","MEAN_MOTION":14.34217743,"ECCENTRICITY":0.0002041,"INCLINATION":86.4012,"RA_OF_ASC_NODE":6.4203,"ARG_OF_PERICENTER":93.7742,"MEAN_ANOMALY":266.3687,"EPHEMERIS_TYPE":0,"CLASSIFICATION_TYPE":"U","NORAD_CAT_ID":43072,"ELEMENT_SET_NO":999,"REV_AT_EPOCH":42893,"BSTAR":3.2298e-6,"MEAN_MOTION_DOT":2.9e-7,"MEAN_MOTION_DDOT":0},{"OBJECT_NAME":"IRIDIUM 130","OBJECT_ID":"2017-083D","EPOCH":"2026-03-03T01:34:07.072896","MEAN_MOTION":14.34218354,"ECCENTRICITY":0.0001895,"INCLINATION":86.4021,"RA_OF_ASC_NODE":6.6112,"ARG_OF_PERICENTER":87.9671,"MEAN_ANOMALY":272.1742,"EPHEMERIS_TYPE":0,"CLASSIFICATION_TYPE":"U","NORAD_CAT_ID":43073,"ELEMENT_SET_NO":999,"REV_AT_EPOCH":42890,"BSTAR":5.3956e-5,"MEAN_MOTION_DOT":1.71e-6,"MEAN_MOTION_DDOT":0}]
